[{"OBJECT_NAME":"ONEWEB-0526","OBJECT_ID":"2022-138AH","EPOCH":"2026-02-21T19:14:02.669856","MEAN_MOTION":13.19735856,"ECCENTRICITY":0.0002205,"INCLINATION":87.9271,"RA_OF_ASC_NODE":327.9382,"ARG_OF_PERICENTER":70.1582,"MEAN_ANOMALY":289.9789,"EPHEMERIS_TYPE":0,"CLASSIFICATION_TYPE":"U","NORAD_CAT_ID":54144,"ELEMENT_SET_NO":999,"REV_AT_EPOCH":16158,"BSTAR":0.0014778,"MEAN_MOTION_DOT":6.05e-6,"MEAN_MOTION_DDOT":0},{"OBJECT_NAME":"ONEWEB-0529","OBJECT_ID":"2022-138AJ","EPOCH":"2026-02-22T00:46:09.027552","MEAN_MOTION":13.19724515,"ECCENTRICITY":0.0001599,"INCLINATION":87.9247,"RA_OF_ASC_NODE":327.9093,"ARG_OF_PERICENTER":85.5932,"MEAN_ANOMALY":274.5384,"EPHEMERIS_TYPE":0,"CLASSIFICATION_TYPE":"U","NORAD_CAT_ID":54145,"ELEMENT_SET_NO":999,"REV_AT_EPOCH":16163,"BSTAR":0.00010557,"MEAN_MOTION_DOT":5.5e-7,"MEAN_MOTION_DDOT":0},{"OBJECT_NAME":"ONEWEB-0531","OBJECT_ID":"2022-138AK","EPOCH":"2026-02-22T01:58:19.964064","MEAN_MOTION":13.20772116,"ECCENTRICITY":0.00025,"INCLINATION":87.9197,"RA_OF_ASC_NODE":297.4146,"ARG_OF_PERICENTER":76.4688,"MEAN_ANOMALY":283.6724,"EPHEMERIS_TYPE":0,"CLASSIFICATION_TYPE":"U","NORAD_CAT_ID":54146,"ELEMENT_SET_NO":999,"REV_AT_EPOCH":16411,"BSTAR":0.00017851,"MEAN_MOTION_DOT":8.6e-7,"MEAN_MOTION_DDOT":0},{"OBJECT_NAME":"ONEWEB-0535","OBJECT_ID":"2022-138AL","EPOCH":"2026-02-21T23:44:44.760480","MEAN_MOTION":13.19725317,"ECCENTRICITY":0.0001949,"INCLINATION":87.9257,"RA_OF_ASC_NODE":327.8924,"ARG_OF_PERICENTER":71.6698,"MEAN_ANOMALY":288.4647,"EPHEMERIS_TYPE":0,"CLASSIFICATION_TYPE":"U","NORAD_CAT_ID":54147,"ELEMENT_SET_NO":999,"REV_AT_EPOCH":16164,"BSTAR":-2.8434e-5,"MEAN_MOTION_DOT":2.0e-8,"MEAN_MOTION_DDOT":0},{"OBJECT_NAME":"ONEWEB-0536","OBJECT_ID":"2022-138AM","EPOCH":"2026-02-22T03:29:14.510112","MEAN_MOTION":13.20771956,"ECCENTRICITY":0.0002602,"INCLINATION":87.9187,"RA_OF_ASC_NODE":297.4385,"ARG_OF_PERICENTER":79.8228,"MEAN_ANOMALY":280.3199,"EPHEMERIS_TYPE":0,"CLASSIFICATION_TYPE":"U","NORAD_CAT_ID":54148,"ELEMENT_SET_NO":999,"REV_AT_EPOCH":16411,"BSTAR":0.00014206,"MEAN_MOTION_DOT":7.1e-7,"MEAN_MOTION_DDOT":0},{"OBJECT_NAME":"ONEWEB-0527","OBJECT_ID":"2022-166A","EPOCH":"2026-02-22T02:41:33.592704","MEAN_MOTION":13.2182454,"ECCENTRICITY":0.0001632,"INCLINATION":87.9172,"RA_OF_ASC_NODE":266.9508,"ARG_OF_PERICENTER":90.8636,"MEAN_ANOMALY":269.2685,"EPHEMERIS_TYPE":0,"CLASSIFICATION_TYPE":"U","NORAD_CAT_ID":54642,"ELEMENT_SET_NO":999,"REV_AT_EPOCH":15633,"BSTAR":-0.00023706,"MEAN_MOTION_DOT":-8.5e-7,"MEAN_MOTION_DDOT":0},{"OBJECT_NAME":"ONEWEB-0528","OBJECT_ID":"2022-166B","EPOCH":"2026-02-22T01:02:02.296896","MEAN_MOTION":13.21825484,"ECCENTRICITY":0.0001589,"INCLINATION":87.9171,"RA_OF_ASC_NODE":266.9686,"ARG_OF_PERICENTER":89.1317,"MEAN_ANOMALY":270.9999,"EPHEMERIS_TYPE":0,"CLASSIFICATION_TYPE":"U","NORAD_CAT_ID":54643,"ELEMENT_SET_NO":999,"REV_AT_EPOCH":15633,"BSTAR":-9.4275e-5,"MEAN_MOTION_DOT":-2.6e-7,"MEAN_MOTION_DDOT":0},{"OBJECT_NAME":"ONEWEB-0539","OBJECT_ID":"2022-166C","EPOCH":"2026-02-22T01:56:32.206848","MEAN_MOTION":13.2182503,"ECCENTRICITY":0.0001356,"INCLINATION":87.9169,"RA_OF_ASC_NODE":266.9262,"ARG_OF_PERICENTER":87.3339,"MEAN_ANOMALY":272.795,"EPHEMERIS_TYPE":0,"CLASSIFICATION_TYPE":"U","NORAD_CAT_ID":54644,"ELEMENT_SET_NO":999,"REV_AT_EPOCH":15633,"BSTAR":0.00024871,"MEAN_MOTION_DOT":1.16e-6,"MEAN_MOTION_DDOT":0},{"OBJECT_NAME":"ONEWEB-0540","OBJECT_ID":"2022-166D","EPOCH":"2026-02-22T02:06:12.656736","MEAN_MOTION":13.21826546,"ECCENTRICITY":0.0001506,"INCLINATION":87.9174,"RA_OF_ASC_NODE":266.9611,"ARG_OF_PERICENTER":84.2044,"MEAN_ANOMALY":275.9261,"EPHEMERIS_TYPE":0,"CLASSIFICATION_TYPE":"U","NORAD_CAT_ID":54645,"ELEMENT_SET_NO":999,"REV_AT_EPOCH":15632,"BSTAR":0.00011657,"MEAN_MOTION_DOT":6.1e-7,"MEAN_MOTION_DDOT":0},{"OBJECT_NAME":"ONEWEB-0542","OBJECT_ID":"2022-166E","EPOCH":"2026-02-22T02:10:45.854400","MEAN_MOTION":13.2182813,"ECCENTRICITY":0.0001367,"INCLINATION":87.9178,"RA_OF_ASC_NODE":266.9194,"ARG_OF_PERICENTER":77.9142,"MEAN_ANOMALY":282.2145,"EPHEMERIS_TYPE":0,"CLASSIFICATION_TYPE":"U","NORAD_CAT_ID":54646,"ELEMENT_SET_NO":999,"REV_AT_EPOCH":15633,"BSTAR":8.6414e-5,"MEAN_MOTION_DOT":4.9e-7,"MEAN_MOTION_DDOT":0},{"OBJECT_NAME":"ONEWEB-0545","OBJECT_ID":"2022-166F","EPOCH":"2026-02-22T01:20:59.670816","MEAN_MOTION":13.21824709,"ECCENTRICITY":0.0001349,"INCLINATION":87.917,"RA_OF_ASC_NODE":266.9479,"ARG_OF_PERICENTER":70.895,"MEAN_ANOMALY":289.233,"EPHEMERIS_TYPE":0,"CLASSIFICATION_TYPE":"U","NORAD_CAT_ID":54647,"ELEMENT_SET_NO":999,"REV_AT_EPOCH":15629,"BSTAR":-5.6266e-5,"MEAN_MOTION_DOT":-1.0e-7,"MEAN_MOTION_DDOT":0},{"OBJECT_NAME":"ONEWEB-0580","OBJECT_ID":"2022-166G","EPOCH":"2026-02-22T02:32:05.091072","MEAN_MOTION":13.2182474,"ECCENTRICITY":0.0001522,"INCLINATION":87.9174,"RA_OF_ASC_NODE":266.9375,"ARG_OF_PERICENTER":74.4861,"MEAN_ANOMALY":285.6441,"EPHEMERIS_TYPE":0,"CLASSIFICATION_TYPE":"U","NORAD_CAT_ID":54648,"ELEMENT_SET_NO":999,"REV_AT_EPOCH":15634,"BSTAR":-0.00020249,"MEAN_MOTION_DOT":-7.1e-7,"MEAN_MOTION_DDOT":0},{"OBJECT_NAME":"ONEWEB-0582","OBJECT_ID":"2022-166H","EPOCH":"2026-02-22T01:44:41.304192","MEAN_MOTION":13.21824969,"ECCENTRICITY":0.0001356,"INCLINATION":87.9171,"RA_OF_ASC_NODE":266.9368,"ARG_OF_PERICENTER":74.8021,"MEAN_ANOMALY":285.3263,"EPHEMERIS_TYPE":0,"CLASSIFICATION_TYPE":"U","NORAD_CAT_ID":54649,"ELEMENT_SET_NO":999,"REV_AT_EPOCH":15631,"BSTAR":0.00025935,"MEAN_MOTION_DOT":1.2e-6,"MEAN_MOTION_DDOT":0},{"OBJECT_NAME":"ONEWEB-0583","OBJECT_ID":"2022-166J","EPOCH":"2026-02-22T02:01:16.360896","MEAN_MOTION":13.21825761,"ECCENTRICITY":0.0001462,"INCLINATION":87.9173,"RA_OF_ASC_NODE":266.9578,"ARG_OF_PERICENTER":86.7921,"MEAN_ANOMALY":273.338,"EPHEMERIS_TYPE":0,"CLASSIFICATION_TYPE":"U","NORAD_CAT_ID":54650,"ELEMENT_SET_NO":999,"REV_AT_EPOCH":15632,"BSTAR":8.2671e-5,"MEAN_MOTION_DOT":4.7e-7,"MEAN_MOTION_DDOT":0},{"OBJECT_NAME":"ONEWEB-0584","OBJECT_ID":"2022-166K","EPOCH":"2026-02-22T00:40:42.888288","MEAN_MOTION":13.21824984,"ECCENTRICITY":0.0001556,"INCLINATION":87.917,"RA_OF_ASC_NODE":266.9569,"ARG_OF_PERICENTER":74.9179,"MEAN_ANOMALY":285.2127,"EPHEMERIS_TYPE":0,"CLASSIFICATION_TYPE":"U","NORAD_CAT_ID":54651,"ELEMENT_SET_NO":999,"REV_AT_EPOCH":15630,"BSTAR":1.5302e-5,"MEAN_MOTION_DOT":1.9e-7,"MEAN_MOTION_DDOT":0},{"OBJECT_NAME":"ONEWEB-0585","OBJECT_ID":"2022-166L","EPOCH":"2026-02-22T01:16:14.538720","MEAN_MOTION":13.21826987,"ECCENTRICITY":0.0001696,"INCLINATION":87.9168,"RA_OF_ASC_NODE":266.9361,"ARG_OF_PERICENTER":91.719,"MEAN_ANOMALY":268.4138,"EPHEMERIS_TYPE":0,"CLASSIFICATION_TYPE":"U","NORAD_CAT_ID":54652,"ELEMENT_SET_NO":999,"REV_AT_EPOCH":15631,"BSTAR":0.00013337,"MEAN_MOTION_DOT":6.8e-7,"MEAN_MOTION_DDOT":0},{"OBJECT_NAME":"ONEWEB-0586","OBJECT_ID":"2022-166M","EPOCH":"2026-02-22T01:35:11.965344","MEAN_MOTION":13.21824162,"ECCENTRICITY":0.0001403,"INCLINATION":87.917,"RA_OF_ASC_NODE":266.9592,"ARG_OF_PERICENTER":82.9312,"MEAN_ANOMALY":277.1981,"EPHEMERIS_TYPE":0,"CLASSIFICATION_TYPE":"U","NORAD_CAT_ID":54653,"ELEMENT_SET_NO":999,"REV_AT_EPOCH":15631,"BSTAR":0.00024138,"MEAN_MOTION_DOT":1.13e-6,"MEAN_MOTION_DDOT":0},{"OBJECT_NAME":"ONEWEB-0587","OBJECT_ID":"2022-166N","EPOCH":"2026-02-22T01:49:26.025888","MEAN_MOTION":13.21827117,"ECCENTRICITY":0.0001771,"INCLINATION":87.9175,"RA_OF_ASC_NODE":266.9206,"ARG_OF_PERICENTER":98.9077,"MEAN_ANOMALY":261.2257,"EPHEMERIS_TYPE":0,"CLASSIFICATION_TYPE":"U","NORAD_CAT_ID":54654,"ELEMENT_SET_NO":999,"REV_AT_EPOCH":15647,"BSTAR":0.00017319,"MEAN_MOTION_DOT":8.5e-7,"MEAN_MOTION_DDOT":0},{"OBJECT_NAME":"ONEWEB-0589","OBJECT_ID":"2022-166P","EPOCH":"2026-02-22T01:30:27.130464","MEAN_MOTION":13.21825675,"ECCENTRICITY":0.0001513,"INCLINATION":87.9169,"RA_OF_ASC_NODE":266.9494,"ARG_OF_PERICENTER":55.4746,"MEAN_ANOMALY":304.653,"EPHEMERIS_TYPE":0,"CLASSIFICATION_TYPE":"U","NORAD_CAT_ID":54655,"ELEMENT_SET_NO":999,"REV_AT_EPOCH":15633,"BSTAR":0.00022163,"MEAN_MOTION_DOT":1.05e-6,"MEAN_MOTION_DDOT":0},{"OBJECT_NAME":"ONEWEB-0590","OBJECT_ID":"2022-166Q","EPOCH":"2026-02-22T02:05:49.220736","MEAN_MOTION":13.21825736,"ECCENTRICITY":0.0001987,"INCLINATION":87.9178,"RA_OF_ASC_NODE":266.9227,"ARG_OF_PERICENTER":81.7525,"MEAN_ANOMALY":278.3834,"EPHEMERIS_TYPE":0,"CLASSIFICATION_TYPE":"U","NORAD_CAT_ID":54656,"ELEMENT_SET_NO":999,"REV_AT_EPOCH":15632,"BSTAR":0.00013475,"MEAN_MOTION_DOT":6.9e-7,"MEAN_MOTION_DDOT":0},{"OBJECT_NAME":"ONEWEB-0591","OBJECT_ID":"2022-166R","EPOCH":"2026-02-22T02:22:35.654592","MEAN_MOTION":13.21827054,"ECCENTRICITY":0.0001655,"INCLINATION":87.9168,"RA_OF_ASC_NODE":266.9434,"ARG_OF_PERICENTER":86.0232,"MEAN_ANOMALY":274.1091,"EPHEMERIS_TYPE":0,"CLASSIFICATION_TYPE":"U","NORAD_CAT_ID":54657,"ELEMENT_SET_NO":999,"REV_AT_EPOCH":15635,"BSTAR":-0.0001254,"MEAN_MOTION_DOT":-3.9e-7,"MEAN_MOTION_DDOT":0},{"OBJECT_NAME":"ONEWEB-0592","OBJECT_ID":"2022-166S","EPOCH":"2026-02-22T02:27:21.138336","MEAN_MOTION":13.21826662,"ECCENTRICITY":0.0001621,"INCLINATION":87.918,"RA_OF_ASC_NODE":266.9121,"ARG_OF_PERICENTER":86.5746,"MEAN_ANOMALY":273.5573,"EPHEMERIS_TYPE":0,"CLASSIFICATION_TYPE":"U","NORAD_CAT_ID":54658,"ELEMENT_SET_NO":999,"REV_AT_EPOCH":15623,"BSTAR":-5.4979e-5,"MEAN_MOTION_DOT":-1.0e-7,"MEAN_MOTION_DDOT":0},{"OBJECT_NAME":"ONEWEB-0593","OBJECT_ID":"2022-166T","EPOCH":"2026-02-22T01:11:31.089696","MEAN_MOTION":13.21825202,"ECCENTRICITY":0.0001453,"INCLINATION":87.9171,"RA_OF_ASC_NODE":266.9429,"ARG_OF_PERICENTER":88.5363,"MEAN_ANOMALY":271.5937,"EPHEMERIS_TYPE":0,"CLASSIFICATION_TYPE":"U","NORAD_CAT_ID":54659,"ELEMENT_SET_NO":999,"REV_AT_EPOCH":15633,"BSTAR":-9.8973e-5,"MEAN_MOTION_DOT":-2.8e-7,"MEAN_MOTION_DDOT":0},{"OBJECT_NAME":"ONEWEB-0594","OBJECT_ID":"2022-166U","EPOCH":"2026-02-22T01:39:56.743200","MEAN_MOTION":13.21827096,"ECCENTRICITY":0.0001598,"INCLINATION":87.917,"RA_OF_ASC_NODE":266.9569,"ARG_OF_PERICENTER":91.9241,"MEAN_ANOMALY":268.2076,"EPHEMERIS_TYPE":0,"CLASSIFICATION_TYPE":"U","NORAD_CAT_ID":54660,"ELEMENT_SET_NO":999,"REV_AT_EPOCH":15635,"BSTAR":0.00022489,"MEAN_MOTION_DOT":1.06e-6,"MEAN_MOTION_DDOT":0}]
